NORAD_CAT_ID,OBJECT_NAME,OBJECT_TYPE,EPOCH,MEAN_MOTION,ECCENTRICITY,INCLINATION,RA_OF_ASC_NODE,ARG_OF_PERICENTER,MEAN_ANOMALY,BSTAR,MEAN_MOTION_DOT,MEAN_MOTION_DDOT,TLE_LINE0,TLE_LINE1,TLE_LINE2,SEMIMAJOR_AXIS,PERIOD,APOGEE,PERIGEE,DECAYED
52616.0,STARLINK-4015,PAYLOAD,2023-10-19 02:32:12,15.08851494,0.0001647,53.2165,226.3023,88.7312,271.3869,0.0005233,8.053e-05,0.0,0 STARLINK-4015,1 52616U 22052U   23292.10570489  .00008053  00000-0  52330-3 0  9995,2 52616  53.2165 226.3023 0001647  88.7312 271.3869 15.08851494 79635,6917.845,95.437,540.85,538.571,0.0
52616.0,STARLINK-4015,PAYLOAD,2023-10-19 20:01:27,15.08851212,0.0001354,53.2156,223.0292,84.7342,275.3804,0.00041299,6.293e-05,0.0,0 STARLINK-4015,1 52616U 22052U   23292.83434127  .00006293  00000-0  41299-3 0  9999,2 52616  53.2156 223.0292 0001354  84.7342 275.3804 15.08851212 79373,6917.846,95.437,540.648,538.774,0.0
52616.0,STARLINK-4015,PAYLOAD,2023-10-20 02:22:59,15.08864112,0.0001215,53.2159,221.8414,91.2922,268.8209,0.001262,0.00019867,0.0,0 STARLINK-4015,1 52616U 22052U   23293.09929877  .00019867  00000-0  12620-2 0  9995,2 52616  53.2159 221.8414 0001215  91.2922 268.8209 15.08864112 79785,6917.807,95.436,540.512,538.831,0.0
52616.0,STARLINK-4015,PAYLOAD,2023-10-20 19:52:14,15.08833389,9.64e-05,53.2165,218.5711,75.7463,284.3636,0.00030907,4.634e-05,0.0,0 STARLINK-4015,1 52616U 22052U   23293.82794555  .00004634  00000-0  30907-3 0  9994,2 52616  53.2165 218.5711 0000964  75.7463 284.3636 15.08833389 79893,6917.901,95.438,540.432,539.099,0.0
52616.0,STARLINK-4015,PAYLOAD,2023-10-21 11:46:06,15.08837063,0.0001513,53.216,215.5976,94.2742,265.8423,0.00015856,2.236e-05,0.0,0 STARLINK-4015,1 52616U 22052U   23294.49034749  .00002236  00000-0  15856-3 0  9992,2 52616  53.2160 215.5976 0001513  94.2742 265.8423 15.08837063 79627,6917.889,95.438,540.801,538.708,0.0
52616.0,STARLINK-4015,PAYLOAD,2023-10-21 22:53:47,15.08852207,0.0001119,53.215,213.5123,85.7784,274.3336,0.00046282,7.088e-05,0.0,0 STARLINK-4015,1 52616U 22052U   23294.95402154  .00007088  00000-0  46282-3 0  9999,2 52616  53.2150 213.5123 0001119  85.7784 274.3336 15.08852207 79693,6917.843,95.437,540.482,538.934,0.0
52616.0,STARLINK-4015,PAYLOAD,2023-10-22 02:04:34,15.08826834,0.0001484,53.2161,212.9217,96.979,263.1371,5.257e-05,5.49e-06,0.0,0 STARLINK-4015,1 52616U 22052U   23295.08650930  .00000549  00000-0  52570-4 0  9994,2 52616  53.2161 212.9217 0001484  96.9790 263.1371 15.08826834 80085,6917.921,95.438,540.812,538.759,0.0
52616.0,STARLINK-4015,PAYLOAD,2023-10-22 11:36:53,15.0882903,0.0001454,53.216,211.1369,89.3806,270.7353,5.9022e-05,6.51e-06,0.0,0 STARLINK-4015,1 52616U 22052U   23295.48395186  .00000651  00000-0  59022-4 0  9990,2 52616  53.2160 211.1369 0001454  89.3806 270.7353 15.08829030 79773,6917.914,95.438,540.785,538.773,0.0
52616.0,STARLINK-4015,PAYLOAD,2023-10-23 01:55:21,15.08843125,0.0001368,53.2156,208.4626,93.4335,266.6813,0.00039341,5.979e-05,0.0,0 STARLINK-4015,1 52616U 22052U   23296.08011141  .00005979  00000-0  39341-3 0  9992,2 52616  53.2156 208.4626 0001368  93.4335 266.6813 15.08843125 80239,6917.871,95.437,540.682,538.789,0.0
52616.0,STARLINK-4015,PAYLOAD,2023-10-23 11:27:40,15.08833163,0.0001374,53.2156,206.6766,90.9306,269.1843,0.00010802,1.431e-05,0.0,0 STARLINK-4015,1 52616U 22052U   23296.47755495  .00001431  00000-0  10802-3 0  9992,2 52616  53.2156 206.6766 0001374  90.9306 269.1843 15.08833163 80299,6917.901,95.438,540.717,538.816,0.0
52616.0,STARLINK-4015,PAYLOAD,2023-10-23 22:35:22,15.08843663,0.0001129,53.217,204.5949,93.9845,266.1276,0.00040337,6.138e-05,0.0,0 STARLINK-4015,1 52616U 22052U   23296.94123406  .00006138  00000-0  40337-3 0  9990,2 52616  53.2170 204.5949 0001129  93.9845 266.1276 15.08843663 79992,6917.869,95.437,540.515,538.953,0.0
52616.0,STARLINK-4015,PAYLOAD,2023-10-24 03:21:31,15.08862746,0.0001363,53.2159,203.7032,92.6515,267.4634,0.0012325,0.00019394,0.0,0 STARLINK-4015,1 52616U 22052U   23297.13995202  .00019394  00000-0  12325-2 0  9996,2 52616  53.2159 203.7032 0001363  92.6515 267.4634 15.08862746 80394,6917.811,95.436,540.619,538.733,0.0
52616.0,STARLINK-4015,PAYLOAD,2023-10-24 11:18:27,15.08838571,0.0001334,53.217,202.2142,93.3885,266.726,0.00059715,9.228e-05,0.0,0 STARLINK-4015,1 52616U 22052U   23297.47115428  .00009228  00000-0  59715-3 0  9997,2 52616  53.2170 202.2142 0001334  93.3885 266.7260 15.08838571 80070,6917.885,95.438,540.673,538.827,0.0
52616.0,STARLINK-4015,PAYLOAD,2023-10-25 03:12:19,15.08850527,0.0001527,53.2161,199.2411,93.0491,267.0676,0.00075078,0.00011684,0.0,0 STARLINK-4015,1 52616U 22052U   23298.13355374  .00011684  00000-0  75078-3 0  9996,2 52616  53.2161 199.2411 0001527  93.0491 267.0676 15.08850527 80540,6917.848,95.437,540.77,538.657,0.0
52616.0,STARLINK-4015,PAYLOAD,2023-10-25 20:41:33,15.08848363,0.000155,53.2155,195.97,88.5522,271.5648,0.000353,5.336e-05,0.0,0 STARLINK-4015,1 52616U 22052U   23298.86219238  .00005336  00000-0  35300-3 0  9995,2 52616  53.2155 195.9700 0001550  88.5522 271.5648 15.08848363 80282,6917.855,95.437,540.792,538.648,0.0
52616.0,STARLINK-4015,PAYLOAD,2023-10-26 03:03:05,15.08854333,0.0001724,53.2169,194.7792,94.2808,265.8381,0.00041417,6.312e-05,0.0,0 STARLINK-4015,1 52616U 22052U   23299.12714974  .00006312  00000-0  41417-3 0  9993,2 52616  53.2169 194.7792 0001724  94.2808 265.8381 15.08854333 80698,6917.837,95.437,540.894,538.509,0.0
52616.0,STARLINK-4015,PAYLOAD,2023-10-26 20:32:20,15.08847852,0.0001431,53.2162,191.5088,101.8176,258.2976,0.00021943,3.207e-05,0.0,0 STARLINK-4015,1 52616U 22052U   23299.85578898  .00003207  00000-0  21943-3 0  9998,2 52616  53.2162 191.5088 0001431 101.8176 258.2976 15.08847852 80438,6917.856,95.437,540.711,538.731,0.0
52616.0,STARLINK-4015,PAYLOAD,2023-10-26 23:43:06,15.08849537,0.000162,53.2161,190.9113,95.5947,264.5229,0.00020354,2.954e-05,0.0,0 STARLINK-4015,1 52616U 22052U   23299.98826723  .00002954  00000-0  20354-3 0  9998,2 52616  53.2161 190.9113 0001620  95.5947 264.5229 15.08849537 80820,6917.851,95.437,540.837,538.596,0.0
52616.0,STARLINK-4015,PAYLOAD,2023-10-27 09:15:24,15.08850174,0.0001248,53.2151,189.132,88.0765,272.0371,0.0001803,2.584e-05,0.0,0 STARLINK-4015,1 52616U 22052U   23300.38570542  .00002584  00000-0  18030-3 0  9997,2 52616  53.2151 189.1320 0001248  88.0765 272.0371 15.08850174 80517,6917.849,95.437,540.578,538.851,0.0
52616.0,STARLINK-4015,PAYLOAD,2023-10-27 17:12:21,15.08837012,0.0001605,53.2155,187.6456,80.3948,279.7225,-8.9637e-05,-1.714e-05,0.0,0 STARLINK-4015,1 52616U 22052U   23300.71691030 -.00001714  00000-0 -89637-4 0  9998,2 52616  53.2155 187.6456 0001605  80.3948 279.7225 15.08837012 80933,6917.89,95.438,540.865,538.644,0.0
52616.0,STARLINK-4015,PAYLOAD,2023-10-27 21:58:30,15.08838285,0.000142,53.2159,186.7536,82.8801,277.2352,-3.882e-05,-9.06e-06,0.0,0 STARLINK-4015,1 52616U 22052U   23300.91563093 -.00000906  00000-0 -38820-4 0  9997,2 52616  53.2159 186.7536 0001420  82.8801 277.2352 15.08838285 80595,6917.886,95.438,540.733,538.768,0.0
52616.0,STARLINK-4015,PAYLOAD,2023-10-28 09:06:12,15.08834141,0.0001285,53.2162,184.6735,82.6707,277.4431,7.3692e-05,8.85e-06,0.0,0 STARLINK-4015,1 52616U 22052U   23301.37931455  .00000885  00000-0  73692-4 0  9999,2 52616  53.2162 184.6735 0001285  82.6707 277.4431 15.08834141 80664,6917.898,95.438,540.652,538.874,0.0
52616.0,STARLINK-4015,PAYLOAD,2023-10-28 20:13:54,15.0883939,0.000129,53.2163,182.5921,84.0811,276.0328,0.00034122,5.147e-05,0.0,0 STARLINK-4015,1 52616U 22052U   23301.84299601  .00005147  00000-0  34122-3 0  9991,2 52616  53.2163 182.5921 0001290  84.0811 276.0328 15.08839390 81108,6917.882,95.438,540.64,538.855,0.0
52616.0,STARLINK-4015,PAYLOAD,2023-10-28 21:49:17,15.0884073,0.0001288,53.2162,182.2948,83.5271,276.5868,0.00039992,6.083e-05,0.0,0 STARLINK-4015,1 52616U 22052U   23301.90923595  .00006083  00000-0  39992-3 0  9994,2 52616  53.2162 182.2948 0001288  83.5271 276.5868 15.08840730 80747,6917.878,95.438,540.634,538.852,0.0
52616.0,STARLINK-4015,PAYLOAD,2023-10-29 08:56:59,15.0884325,0.0001243,53.2156,180.2118,86.951,273.1624,0.00029105,4.348e-05,0.0,0 STARLINK-4015,1 52616U 22052U   23302.37291469  .00004348  00000-0  29105-3 0  9991,2 52616  53.2156 180.2118 0001243  86.9510 273.1624 15.08843250 80812,6917.87,95.437,540.595,538.876,0.0
52616.0,STARLINK-4015,PAYLOAD,2023-10-29 21:40:04,15.08844959,0.0001375,53.2156,177.8334,88.5918,271.5231,0.00024871,3.673e-05,0.0,0 STARLINK-4015,1 52616U 22052U   23302.90283429  .00003673  00000-0  24871-3 0  9992,2 52616  53.2156 177.8334 0001375  88.5918 271.5231 15.08844959 80891,6917.865,95.437,540.681,538.779,0.0
52616.0,STARLINK-4015,PAYLOAD,2023-10-30 00:50:51,15.08850229,0.0001434,53.2154,177.2384,83.3809,276.7347,0.00034664,5.235e-05,0.0,0 STARLINK-4015,1 52616U 22052U   23303.03531251  .00005235  00000-0  34664-3 0  9993,2 52616  53.2154 177.2384 0001434  83.3809 276.7347 15.08850229 81282,6917.849,95.437,540.706,538.722,0.0
52616.0,STARLINK-4015,PAYLOAD,2023-10-30 19:55:29,15.08831977,0.0001393,53.2157,173.6711,84.7499,275.3652,-4.7797e-05,-1.048e-05,0.0,0 STARLINK-4015,1 52616U 22052U   23303.83020043 -.00001048  00000-0 -47797-4 0  9995,2 52616  53.2157 173.6711 0001393  84.7499 275.3652 15.08831977 81400,6917.905,95.438,540.734,538.806,0.0
52616.0,STARLINK-4015,PAYLOAD,2023-10-30 21:30:52,15.0883084,0.0001493,53.2149,173.3726,79.524,280.592,-0.00011422,-2.105e-05,0.0,0 STARLINK-4015,1 52616U 22052U   23303.89643992 -.00002105  00000-0 -11422-3 0  9995,2 52616  53.2149 173.3726 0001493  79.5240 280.5920 15.08830840 81045,6917.908,95.438,540.806,538.741,0.0
52616.0,STARLINK-4015,PAYLOAD,2023-10-31 21:21:38,15.08862706,0.0001447,53.2149,168.9121,79.7104,280.4051,0.00048267,7.407e-05,0.0,0 STARLINK-4015,1 52616U 22052U   23304.89002527  .00007407  00000-0  48267-3 0  9994,2 52616  53.2149 168.9121 0001447  79.7104 280.4051 15.08862706 81561,6917.811,95.436,540.677,538.675,0.0
